{
  "type": "FeatureCollection",
  "features": [
    {
      "type": "Feature",
      "properties": {
        "norad_id": 36083,
        "name": "IRIDIUM 33 DEB",
        "group": "iridium-33-debris",
        "lat": 24.11742404173183,
        "lon": -152.2093928864739,
        "alt_km": 731.1333227782834,
        "timestamp": "2025-12-23T16:57:12.739849+00:00",
        "meta_object_name": "IRIDIUM 33 DEB",
        "meta_object_id": "1997-051VQ",
        "meta_epoch": "2025-12-21T09:19:18.145344",
        "meta_mean_motion": 14.43234813,
        "meta_eccentricity": 0.00261912,
        "meta_inclination": 86.3424,
        "meta_ra_of_asc_node": 30.4295,
        "meta_arg_of_pericenter": 193.4541,
        "meta_mean_anomaly": 166.5965,
        "meta_ephemeris_type": 0,
        "meta_classification_type": "U",
        "meta_norad_cat_id": 36083,
        "meta_element_set_no": 999,
        "meta_rev_at_epoch": 85574,
        "meta_bstar": 0.00039895396,
        "meta_mean_motion_dot": 1.367e-05,
        "meta_mean_motion_ddot": 0,
        "tle_line1": "1 36083U 97051VQ  25355.38840446  .00001367  00000+0  39895-3 0  9992",
        "tle_line2": "2 36083  86.3424  30.4295 0026191 193.4541 166.5965 14.43234813855748"
      },
      "geometry": {
        "type": "Point",
        "coordinates": [
          -152.2093928864739,
          24.11742404173183
        ]
      }
    },
    {
      "type": "Feature",
      "properties": {
        "norad_id": 36390,
        "name": "IRIDIUM 33 DEB",
        "group": "iridium-33-debris",
        "lat": 84.00629936023171,
        "lon": 76.2194909314301,
        "alt_km": 622.2572091788697,
        "timestamp": "2025-12-23T16:57:12.739859+00:00",
        "meta_object_name": "IRIDIUM 33 DEB",
        "meta_object_id": "1997-051VU",
        "meta_epoch": "2025-12-22T03:02:43.455840",
        "meta_mean_motion": 14.73721752,
        "meta_eccentricity": 0.00320639,
        "meta_inclination": 86.292,
        "meta_ra_of_asc_node": 295.0892,
        "meta_arg_of_pericenter": 130.5813,
        "meta_mean_anomaly": 229.8203,
        "meta_ephemeris_type": 0,
        "meta_classification_type": "U",
        "meta_norad_cat_id": 36390,
        "meta_element_set_no": 999,
        "meta_rev_at_epoch": 66400,
        "meta_bstar": 0.0010853374,
        "meta_mean_motion_dot": 7.17e-05,
        "meta_mean_motion_ddot": 0,
        "tle_line1": "1 36390U 97051VU  25356.12689185  .00007170  00000+0  10853-2 0  9997",
        "tle_line2": "2 36390  86.2920 295.0892 0032063 130.5813 229.8203 14.73721752664001"
      },
      "geometry": {
        "type": "Point",
        "coordinates": [
          76.2194909314301,
          84.00629936023171
        ]
      }
    },
    {
      "type": "Feature",
      "properties": {
        "norad_id": 36483,
        "name": "IRIDIUM 33 DEB",
        "group": "iridium-33-debris",
        "lat": 61.73236496408255,
        "lon": 54.559217964588136,
        "alt_km": 726.5191112901985,
        "timestamp": "2025-12-23T16:57:12.739869+00:00",
        "meta_object_name": "IRIDIUM 33 DEB",
        "meta_object_id": "1997-051VZ",
        "meta_epoch": "2025-12-21T21:28:56.984736",
        "meta_mean_motion": 14.45839576,
        "meta_eccentricity": 0.00113894,
        "meta_inclination": 86.3785,
        "meta_ra_of_asc_node": 48.5705,
        "meta_arg_of_pericenter": 100.875,
        "meta_mean_anomaly": 259.3734,
        "meta_ephemeris_type": 0,
        "meta_classification_type": "U",
        "meta_norad_cat_id": 36483,
        "meta_element_set_no": 999,
        "meta_rev_at_epoch": 65278,
        "meta_bstar": 0.00044994046,
        "meta_mean_motion_dot": 1.617e-05,
        "meta_mean_motion_ddot": 0,
        "tle_line1": "1 36483U 97051VZ  25355.89510399  .00001617  00000+0  44994-3 0  9997",
        "tle_line2": "2 36483  86.3785  48.5705 0011389 100.8750 259.3734 14.45839576652788"
      },
      "geometry": {
        "type": "Point",
        "coordinates": [
          54.559217964588136,
          61.73236496408255
        ]
      }
    },
    {
      "type": "Feature",
      "properties": {
        "norad_id": 36490,
        "name": "IRIDIUM 33 DEB",
        "group": "iridium-33-debris",
        "lat": 79.60336164483807,
        "lon": 25.78869378585854,
        "alt_km": 630.1363386465673,
        "timestamp": "2025-12-23T16:57:12.739879+00:00",
        "meta_object_name": "IRIDIUM 33 DEB",
        "meta_object_id": "1997-051WG",
        "meta_epoch": "2025-12-20T18:38:39.578208",
        "meta_mean_motion": 14.76343752,
        "meta_eccentricity": 0.00052455,
        "meta_inclination": 86.365,
        "meta_ra_of_asc_node": 6.8378,
        "meta_arg_of_pericenter": 65.8032,
        "meta_mean_anomaly": 294.3734,
        "meta_ephemeris_type": 0,
        "meta_classification_type": "U",
        "meta_norad_cat_id": 36490,
        "meta_element_set_no": 999,
        "meta_rev_at_epoch": 86603,
        "meta_bstar": 0.00097886565,
        "meta_mean_motion_dot": 6.818e-05,
        "meta_mean_motion_ddot": 0,
        "tle_line1": "1 36490U 97051WG  25354.77684697  .00006818  00000+0  97887-3 0  9991",
        "tle_line2": "2 36490  86.3650   6.8378 0005245  65.8032 294.3734 14.76343752866031"
      },
      "geometry": {
        "type": "Point",
        "coordinates": [
          25.78869378585854,
          79.60336164483807
        ]
      }
    },
    {
      "type": "Feature",
      "properties": {
        "norad_id": 36493,
        "name": "IRIDIUM 33 DEB",
        "group": "iridium-33-debris",
        "lat": -70.50978465530962,
        "lon": -3.564328658349536,
        "alt_km": 678.1303092544977,
        "timestamp": "2025-12-23T16:57:12.739890+00:00",
        "meta_object_name": "IRIDIUM 33 DEB",
        "meta_object_id": "1997-051WK",
        "meta_epoch": "2025-12-22T18:19:53.039712",
        "meta_mean_motion": 14.65351358,
        "meta_eccentricity": 0.00090696,
        "meta_inclination": 86.3568,
        "meta_ra_of_asc_node": 7.2254,
        "meta_arg_of_pericenter": 328.804,
        "meta_mean_anomaly": 31.2633,
        "meta_ephemeris_type": 0,
        "meta_classification_type": "U",
        "meta_norad_cat_id": 36493,
        "meta_element_set_no": 999,
        "meta_rev_at_epoch": 74665,
        "meta_bstar": 0.0012995973,
        "meta_mean_motion_dot": 7.043e-05,
        "meta_mean_motion_ddot": 0,
        "tle_line1": "1 36493U 97051WK  25356.76380833  .00007043  00000+0  12996-2 0  9998",
        "tle_line2": "2 36493  86.3568   7.2254 0009069 328.8040  31.2633 14.65351358746659"
      },
      "geometry": {
        "type": "Point",
        "coordinates": [
          -3.564328658349536,
          -70.50978465530962
        ]
      }
    },
    {
      "type": "Feature",
      "properties": {
        "norad_id": 37548,
        "name": "IRIDIUM 33 DEB",
        "group": "iridium-33-debris",
        "lat": -73.39474807804336,
        "lon": 26.245388284460695,
        "alt_km": 741.3173045184149,
        "timestamp": "2025-12-23T16:57:12.739900+00:00",
        "meta_object_name": "IRIDIUM 33 DEB",
        "meta_object_id": "1997-051XH",
        "meta_epoch": "2025-12-15T20:39:30.861504",
        "meta_mean_motion": 14.51326297,
        "meta_eccentricity": 0.00258157,
        "meta_inclination": 86.3522,
        "meta_ra_of_asc_node": 42.0105,
        "meta_arg_of_pericenter": 178.4192,
        "meta_mean_anomaly": 181.71,
        "meta_ephemeris_type": 0,
        "meta_classification_type": "U",
        "meta_norad_cat_id": 37548,
        "meta_element_set_no": 999,
        "meta_rev_at_epoch": 65577,
        "meta_bstar": 0.00067405053,
        "meta_mean_motion_dot": 2.715e-05,
        "meta_mean_motion_ddot": 0,
        "tle_line1": "1 37548U 97051XH  25349.86077386  .00002715  00000+0  67405-3 0  9996",
        "tle_line2": "2 37548  86.3522  42.0105 0025815 178.4192 181.7100 14.51326297655778"
      },
      "geometry": {
        "type": "Point",
        "coordinates": [
          26.245388284460695,
          -73.39474807804336
        ]
      }
    },
    {
      "type": "Feature",
      "properties": {
        "norad_id": 37550,
        "name": "IRIDIUM 33 DEB",
        "group": "iridium-33-debris",
        "lat": -50.277222497928875,
        "lon": -156.612246691989,
        "alt_km": 679.979589110746,
        "timestamp": "2025-12-23T16:57:12.739910+00:00",
        "meta_object_name": "IRIDIUM 33 DEB",
        "meta_object_id": "1997-051XK",
        "meta_epoch": "2025-12-19T08:47:41.172864",
        "meta_mean_motion": 14.67293181,
        "meta_eccentricity": 0.0005615,
        "meta_inclination": 86.3772,
        "meta_ra_of_asc_node": 20.938,
        "meta_arg_of_pericenter": 96.5697,
        "meta_mean_anomaly": 263.6157,
        "meta_ephemeris_type": 0,
        "meta_classification_type": "U",
        "meta_norad_cat_id": 37550,
        "meta_element_set_no": 999,
        "meta_rev_at_epoch": 86430,
        "meta_bstar": 0.00085807,
        "meta_mean_motion_dot": 4.861e-05,
        "meta_mean_motion_ddot": 0,
        "tle_line1": "1 37550U 97051XK  25353.36644876  .00004861  00000+0  85807-3 0  9993",
        "tle_line2": "2 37550  86.3772  20.9380 0005615  96.5697 263.6157 14.67293181864309"
      },
      "geometry": {
        "type": "Point",
        "coordinates": [
          -156.612246691989,
          -50.277222497928875
        ]
      }
    }
  ]
}